NORAD_CAT_ID,OBJECT_NAME,OBJECT_TYPE,EPOCH,MEAN_MOTION,ECCENTRICITY,INCLINATION,RA_OF_ASC_NODE,ARG_OF_PERICENTER,MEAN_ANOMALY,BSTAR,MEAN_MOTION_DOT,MEAN_MOTION_DDOT,TLE_LINE0,TLE_LINE1,TLE_LINE2,SEMIMAJOR_AXIS,PERIOD,APOGEE,PERIGEE,DECAYED
49446.0,STARLINK-3099,PAYLOAD,2024-01-21 11:43:35,15.08843928,0.0001392,53.2159,102.6009,105.6377,254.4768,1.7949e-05,-2e-08,0.0,0 STARLINK-3099,1 49446U 21104AQ  24021.48860441 -.00000002  00000-0  17949-4 0  9996,2 49446  53.2159 102.6009 0001392 105.6377 254.4768 15.08843928122500,6917.868,95.437,540.696,538.77,0.0
49446.0,STARLINK-3099,PAYLOAD,2024-01-22 11:34:22,15.08841214,0.0001303,53.2163,98.1407,90.8247,269.2895,0.00020815,3.026e-05,0.0,0 STARLINK-3099,1 49446U 21104AQ  24022.48220313  .00003026  00000-0  20815-3 0  9998,2 49446  53.2163  98.1407 0001303  90.8247 269.2895 15.08841214121587,6917.877,95.437,540.643,538.84,0.0
49446.0,STARLINK-3099,PAYLOAD,2024-01-23 09:49:46,15.08844046,0.0001459,53.2166,93.9786,74.5842,285.5311,6.6246e-05,7.67e-06,0.0,0 STARLINK-3099,1 49446U 21104AQ  24023.40956638  .00000767  00000-0  66246-4 0  9995,2 49446  53.2166  93.9786 0001459  74.5842 285.5311 15.08844046122799,6917.868,95.437,540.742,538.724,0.0
49446.0,STARLINK-3099,PAYLOAD,2024-01-24 11:15:57,15.0883496,0.0001493,53.218,89.2176,94.1513,265.965,3.321e-05,2.41e-06,0.0,0 STARLINK-3099,1 49446U 21104AQ  24024.46941331  .00000241  00000-0  33210-4 0  9998,2 49446  53.2180  89.2176 0001493  94.1513 265.9650 15.08834960122957,6917.896,95.438,540.794,538.728,0.0
49446.0,STARLINK-3099,PAYLOAD,2024-01-25 11:06:45,15.08804307,0.0001677,53.2166,84.7609,111.3326,248.7845,0.00041034,6.242e-05,0.0,0 STARLINK-3099,1 49446U 21104AQ  24025.46302483  .00006242  00000-0  41034-3 0  9997,2 49446  53.2166  84.7609 0001677 111.3326 248.7845 15.08804307123105,6917.989,95.44,541.015,538.694,0.0
49446.0,STARLINK-3099,PAYLOAD,2024-01-26 10:57:31,15.08846624,0.0001367,53.2162,80.3,93.1367,266.9782,0.00015662,2.206e-05,0.0,0 STARLINK-3099,1 49446U 21104AQ  24026.45660979  .00002206  00000-0  15662-3 0  9998,2 49446  53.2162  80.3000 0001367  93.1367 266.9782 15.08846624123252,6917.86,95.437,540.671,538.779,0.0
49446.0,STARLINK-3099,PAYLOAD,2024-01-27 10:48:18,15.08838317,0.0001677,53.2179,75.8407,59.5826,300.5332,0.0001687,2.398e-05,0.0,0 STARLINK-3099,1 49446U 21104AQ  24027.45021796  .00002398  00000-0  16870-3 0  9991,2 49446  53.2179  75.8407 0001677  59.5826 300.5332 15.08838317123403,6917.886,95.438,540.911,538.59,0.0
49446.0,STARLINK-3099,PAYLOAD,2024-01-28 12:14:28,15.08849564,0.000166,53.2171,71.0805,76.1258,283.9919,3.7017e-05,3.01e-06,0.0,0 STARLINK-3099,1 49446U 21104AQ  24028.51005111  .00000301  00000-0  37017-4 0  9991,2 49446  53.2171  71.0805 0001660  76.1258 283.9919 15.08849564122490,6917.851,95.437,540.865,538.568,0.0
49446.0,STARLINK-3099,PAYLOAD,2024-01-29 12:05:15,15.08850359,0.0001769,53.2176,66.618,113.3575,246.7603,4.7337e-05,4.66e-06,0.0,0 STARLINK-3099,1 49446U 21104AQ  24029.50364624  .00000466  00000-0  47337-4 0  9996,2 49446  53.2176  66.6180 0001769 113.3575 246.7603 15.08850359122645,6917.849,95.437,540.937,538.49,0.0
49446.0,STARLINK-3099,PAYLOAD,2024-01-30 11:56:02,15.08838668,0.0002063,53.2179,62.1559,119.2145,240.9054,-1.578e-05,-5.39e-06,0.0,0 STARLINK-3099,1 49446U 21104AQ  24030.49725540 -.00000539  00000-0 -15780-4 0  9994,2 49446  53.2179  62.1559 0002063 119.2145 240.9054 15.08838668123865,6917.884,95.438,541.177,538.322,0.0
49446.0,STARLINK-3099,PAYLOAD,2024-01-31 07:00:40,15.08839196,0.0001989,53.2186,58.587,111.9946,248.1258,8.3211e-06,-1.56e-06,0.0,0 STARLINK-3099,1 49446U 21104AQ  24031.29213533 -.00000156  00000-0  83211-5 0  9996,2 49446  53.2186  58.5870 0001989 111.9946 248.1258 15.08839196122910,6917.883,95.438,541.124,538.372,0.0
49446.0,STARLINK-3099,PAYLOAD,2024-02-01 00:29:55,15.0883192,0.0001747,53.2182,55.3187,100.228,259.891,2.7493e-05,1.49e-06,0.0,0 STARLINK-3099,1 49446U 21104AQ  24032.02078213  .00000149  00000-0  27493-4 0  9992,2 49446  53.2182  55.3187 0001747 100.2280 259.8910 15.08831920124098,6917.905,95.438,540.979,538.562,0.0
49446.0,STARLINK-3099,PAYLOAD,2024-02-01 08:26:51,15.08833636,0.0001645,53.2182,53.8327,96.8359,263.282,1.6227e-05,-3e-07,0.0,0 STARLINK-3099,1 49446U 21104AQ  24032.35198284 -.00000030  00000-0  16227-4 0  9992,2 49446  53.2182  53.8327 0001645  96.8359 263.2820 15.08833636123073,6917.9,95.438,540.903,538.627,0.0
49446.0,STARLINK-3099,PAYLOAD,2024-02-02 06:42:15,15.08836781,0.0001566,53.2187,49.6701,83.4944,276.6227,6.1457e-05,6.9e-06,0.0,0 STARLINK-3099,1 49446U 21104AQ  24033.27934277  .00000690  00000-0  61457-4 0  9990,2 49446  53.2187  49.6701 0001566  83.4944 276.6227 15.08836781124288,6917.89,95.438,540.839,538.672,0.0
49446.0,STARLINK-3099,PAYLOAD,2024-02-03 09:43:48,15.08843203,0.0001577,53.2181,44.6132,91.5721,268.5452,8.7474e-05,1.105e-05,0.0,0 STARLINK-3099,1 49446U 21104AQ  24034.40541979  .00001105  00000-0  87474-4 0  9998,2 49446  53.2181  44.6132 0001577  91.5721 268.5452 15.08843203123387,6917.871,95.437,540.827,538.645,0.0
49446.0,STARLINK-3099,PAYLOAD,2024-02-04 09:34:35,15.0883615,0.0001693,53.2176,40.1534,95.4695,264.6491,0.0002051,2.977e-05,0.0,0 STARLINK-3099,1 49446U 21104AQ  24035.39902019  .00002977  00000-0  20510-3 0  9998,2 49446  53.2176  40.1534 0001693  95.4695 264.6491 15.08836150123530,6917.892,95.438,540.928,538.586,0.0
49446.0,STARLINK-3099,PAYLOAD,2024-02-05 06:14:36,15.0884131,0.0001648,53.2171,36.2876,89.4498,270.6682,-9.0443e-06,-4.32e-06,0.0,0 STARLINK-3099,1 49446U 21104AQ  24036.26014394 -.00000432  00000-0 -90443-5 0  9995,2 49446  53.2171  36.2876 0001648  89.4498 270.6682 15.08841310123661,6917.876,95.437,540.881,538.601,0.0
49446.0,STARLINK-3099,PAYLOAD,2024-02-06 04:29:59,15.08846736,0.0001608,53.218,32.1213,104.7608,255.3562,2.1807e-06,-2.53e-06,0.0,0 STARLINK-3099,1 49446U 21104AQ  24037.18749811 -.00000253  00000-0  21807-5 0  9994,2 49446  53.2180  32.1213 0001608 104.7608 255.3562 15.08846736124879,6917.86,95.437,540.837,538.612,0.0
49446.0,STARLINK-3099,PAYLOAD,2024-02-06 06:05:22,15.08847789,0.0001641,53.2184,31.824,105.168,254.9493,1.5187e-05,-4.6e-07,0.0,0 STARLINK-3099,1 49446U 21104AQ  24037.25373706 -.00000046  00000-0  15187-4 0  9991,2 49446  53.2184  31.8240 0001641 105.1680 254.9493 15.08847789123811,6917.857,95.437,540.857,538.586,0.0
49446.0,STARLINK-3099,PAYLOAD,2024-02-07 04:20:47,15.08837168,0.0002053,53.2189,27.6683,125.2861,234.8323,1.016e-05,-1.27e-06,0.0,0 STARLINK-3099,1 49446U 21104AQ  24038.18110437 -.00000127  00000-0  10160-4 0  9990,2 49446  53.2189  27.6683 0002053 125.2861 234.8323 15.08837168125026,6917.889,95.438,541.174,538.334,0.0
49446.0,STARLINK-3099,PAYLOAD,2024-02-07 09:06:56,15.08840841,0.0001569,53.2181,26.7681,107.588,252.5284,-2.537e-05,-6.92e-06,0.0,0 STARLINK-3099,1 49446U 21104AQ  24038.37982331 -.00000692  00000-0 -25370-4 0  9998,2 49446  53.2181  26.7681 0001569 107.5880 252.5284 15.08840841123989,6917.878,95.438,540.828,538.657,0.0
49446.0,STARLINK-3099,PAYLOAD,2024-02-08 05:46:57,15.08845631,0.000145,53.2181,22.9088,99.0875,261.0281,1.5669e-05,-3.9e-07,0.0,0 STARLINK-3099,1 49446U 21104AQ  24039.24094215 -.00000039  00000-0  15669-4 0  9994,2 49446  53.2181  22.9088 0001450  99.0875 261.0281 15.08845631125184,6917.863,95.437,540.731,538.725,0.0
49446.0,STARLINK-3099,PAYLOAD,2024-02-09 04:02:21,15.0884504,0.0001301,53.2175,18.7432,101.2078,258.9061,6.8367e-05,8e-06,0.0,0 STARLINK-3099,1 49446U 21104AQ  24040.16830347  .00000800  00000-0  68367-4 0  9999,2 49446  53.2175  18.7432 0001301 101.2078 258.9061 15.08845040124251,6917.865,95.437,540.63,538.83,0.0
49446.0,STARLINK-3099,PAYLOAD,2024-02-10 03:53:09,15.08837489,0.0001623,53.2185,14.2862,111.4939,248.6226,-3.3658e-06,-3.42e-06,0.0,0 STARLINK-3099,1 49446U 21104AQ  24041.16191379 -.00000342  00000-0 -33658-5 0  9994,2 49446  53.2185  14.2862 0001623 111.4939 248.6226 15.08837489125478,6917.888,95.438,540.876,538.63,0.0
49446.0,STARLINK-3099,PAYLOAD,2024-02-10 07:03:55,15.08840093,0.0001427,53.218,13.6913,88.5217,271.5938,3.2609e-05,2.31e-06,0.0,0 STARLINK-3099,1 49446U 21104AQ  24041.29439302  .00000231  00000-0  32609-4 0  9998,2 49446  53.2180  13.6913 0001427  88.5217 271.5938 15.08840093124422,6917.88,95.438,540.732,538.758,0.0
49446.0,STARLINK-3099,PAYLOAD,2024-02-11 05:19:19,15.08845548,0.0001579,53.219,9.5248,83.4703,276.6468,9.2147e-05,1.179e-05,0.0,0 STARLINK-3099,1 49446U 21104AQ  24042.22175015  .00001179  00000-0  92147-4 0  9995,2 49446  53.2190   9.5248 0001579  83.4703 276.6468 15.08845548125638,6917.863,95.437,540.821,538.636,0.0
49446.0,STARLINK-3099,PAYLOAD,2024-02-11 06:54:42,15.08846199,0.0001606,53.2191,9.2272,86.4737,273.6438,0.00011327,1.515e-05,0.0,0 STARLINK-3099,1 49446U 21104AQ  24042.28798908  .00001515  00000-0  11327-3 0  9997,2 49446  53.2191   9.2272 0001606  86.4737 273.6438 15.08846199124573,6917.861,95.437,540.837,538.615,0.0
49446.0,STARLINK-3099,PAYLOAD,2024-02-12 05:10:05,15.08853931,0.0001768,53.2191,5.0663,80.0407,280.0784,0.00019749,2.858e-05,0.0,0 STARLINK-3099,1 49446U 21104AQ  24043.21534187  .00002858  00000-0  19749-3 0  9995,2 49446  53.2191   5.0663 0001768  80.0407 280.0784 15.08853931124718,6917.838,95.437,540.926,538.48,0.0
49446.0,STARLINK-3099,PAYLOAD,2024-02-12 21:03:57,15.08843956,0.0001727,53.2192,2.0919,81.2086,278.9101,-1.8478e-05,-5.82e-06,0.0,0 STARLINK-3099,1 49446U 21104AQ  24043.87775274 -.00000582  00000-0 -18478-4 0  9994,2 49446  53.2192   2.0919 0001727  81.2086 278.9101 15.08843956124817,6917.868,95.437,540.928,538.539,0.0
49446.0,STARLINK-3099,PAYLOAD,2024-02-13 03:25:30,15.08845475,0.0001599,53.2192,0.902,89.0567,271.0609,-1.6277e-05,-5.47e-06,0.0,0 STARLINK-3099,1 49446U 21104AQ  24044.14270983 -.00000547  00000-0 -16277-4 0  9998,2 49446  53.2192   0.9020 0001599  89.0567 271.0609 15.08845475125922,6917.864,95.437,540.835,538.622,0.0
